[Satellite]
VERSION=1.1
NAME=SL-8 R/B
NICKNAME=SL-8 R/B
TLE1=1 21876U 92008B   19317.55710913  .00000013  00000-0 -26860-5 0  9997
TLE2=2 21876  82.9279 183.6347 0035948  98.8700 322.7040 13.75645927392287
STATUS=0
